[{"OBJECT_NAME":"HORACIO","OBJECT_ID":"2024-043A","EPOCH":"2026-03-09T21:54:40.867200","MEAN_MOTION":14.98036627,"ECCENTRICITY":0.00104103,"INCLINATION":97.8349,"RA_OF_ASC_NODE":200.1753,"ARG_OF_PERICENTER":2.9871,"MEAN_ANOMALY":357.1411,"EPHEMERIS_TYPE":0,"CLASSIFICATION_TYPE":"U","NORAD_CAT_ID":59098,"ELEMENT_SET_NO":999,"REV_AT_EPOCH":10980,"BSTAR":0.00038157841,"MEAN_MOTION_DOT":4.455e-5,"MEAN_MOTION_DDOT":0},{"OBJECT_NAME":"STARLINK-36068","OBJECT_ID":"2025-280AA","EPOCH":"2026-03-09T23:39:32.549760","MEAN_MOTION":14.98335041,"ECCENTRICITY":0.00024521,"INCLINATION":70.0027,"RA_OF_ASC_NODE":333.566,"ARG_OF_PERICENTER":259.1288,"MEAN_ANOMALY":100.9596,"EPHEMERIS_TYPE":0,"CLASSIFICATION_TYPE":"U","NORAD_CAT_ID":66845,"ELEMENT_SET_NO":999,"REV_AT_EPOCH":1612,"BSTAR":0.00043628706,"MEAN_MOTION_DOT":5.117e-5,"MEAN_MOTION_DDOT":0}]
